{"type": "FeatureCollection", "features": [ {"type": "Feature", "properties": {"norad_id": 66365, "name": "STARLINK-35827", "group": "last-30-days", "lat": 49.56252936723081, "lon": 20.30491852803369, "alt_km": 376.92922916277075, "timestamp": "2025-12-03T22:42:31.474644+00:00", "meta": {"OBJECT_NAME": "STARLINK-35827", "OBJECT_ID": "2025-254T", "EPOCH": "2025-12-03T12:00:02.998944", "MEAN_MOTION": 15.63070612, "ECCENTRICITY": 0.0001377, "INCLINATION": 53.1592, "RA_OF_ASC_NODE": 320.8636, "ARG_OF_PERICENTER": 67.2902, "MEAN_ANOMALY": 14.3772, "EPHEMERIS_TYPE": 0, "CLASSIFICATION_TYPE": "U", "NORAD_CAT_ID": 66365, "ELEMENT_SET_NO": 999, "REV_AT_EPOCH": 540, "BSTAR": -0.025067, "MEAN_MOTION_DOT": -0.02037861, "MEAN_MOTION_DDOT": 0}, "tle": {"line1": "1 66365U 25254T   25337.50003471 -.02037861  00000+0 -25067-1 0  9993", "line2": "2 66365  53.1592 320.8636 0001377  67.2902  14.3772 15.63070612  5409"}}, "geometry": {"type": "Point", "coordinates": [20.30491852803369, 49.56252936723081]}}, {"type": "Feature", "properties": {"norad_id": 66366, "name": "STARLINK-35845", "group": "last-30-days", "lat": 48.804955937309344, "lon": 17.62652658759092, "alt_km": 377.0389959754202, "timestamp": "2025-12-03T22:42:31.474654+00:00", "meta": {"OBJECT_NAME": "STARLINK-35845", "OBJECT_ID": "2025-254U", "EPOCH": "2025-12-03T12:00:02.998944", "MEAN_MOTION": 15.62897014, "ECCENTRICITY": 0.0001405, "INCLINATION": 53.1591, "RA_OF_ASC_NODE": 320.8663, "ARG_OF_PERICENTER": 47.7152, "MEAN_ANOMALY": 32.1751, "EPHEMERIS_TYPE": 0, "CLASSIFICATION_TYPE": "U", "NORAD_CAT_ID": 66366, "ELEMENT_SET_NO": 999, "REV_AT_EPOCH": 543, "BSTAR": -0.02292, "MEAN_MOTION_DOT": -0.0187199, "MEAN_MOTION_DDOT": 0}, "tle": {"line1": "1 66366U 25254U   25337.50003471 -.01871990  00000+0 -22920-1 0  9997", "line2": "2 66366  53.1591 320.8663 0001405  47.7152  32.1751 15.62897014  5431"}}, "geometry": {"type": "Point", "coordinates": [17.62652658759092, 48.804955937309344]}}, {"type": "Feature", "properties": {"norad_id": 66367, "name": "STARLINK-35846", "group": "last-30-days", "lat": 50.260305739498655, "lon": 23.079366410373737, "alt_km": 376.81917533575233, "timestamp": "2025-12-03T22:42:31.474677+00:00", "meta": {"OBJECT_NAME": "STARLINK-35846", "OBJECT_ID": "2025-254V", "EPOCH": "2025-12-03T12:00:02.998944", "MEAN_MOTION": 15.63074727, "ECCENTRICITY": 0.0001412, "INCLINATION": 53.1591, "RA_OF_ASC_NODE": 320.8578, "ARG_OF_PERICENTER": 64.9432, "MEAN_ANOMALY": 18.6416, "EPHEMERIS_TYPE": 0, "CLASSIFICATION_TYPE": "U", "NORAD_CAT_ID": 66367, "ELEMENT_SET_NO": 999, "REV_AT_EPOCH": 538, "BSTAR": -0.02517, "MEAN_MOTION_DOT": -0.02045514, "MEAN_MOTION_DDOT": 0}, "tle": {"line1": "1 66367U 25254V   25337.50003471 -.02045514  00000+0 -25170-1 0  9994", "line2": "2 66367  53.1591 320.8578 0001412  64.9432  18.6416 15.63074727  5387"}}, "geometry": {"type": "Point", "coordinates": [23.079366410373737, 50.260305739498655]}}, {"type": "Feature", "properties": {"norad_id": 66368, "name": "STARLINK-34861", "group": "last-30-days", "lat": 24.407115438973026, "lon": 118.63687404046635, "alt_km": 342.69615360332955, "timestamp": "2025-12-03T22:42:31.474687+00:00", "meta": {"OBJECT_NAME": "STARLINK-34861", "OBJECT_ID": "2025-254W", "EPOCH": "2025-12-03T09:53:29.397120", "MEAN_MOTION": 15.74279203, "ECCENTRICITY": 0.0001076, "INCLINATION": 53.1569, "RA_OF_ASC_NODE": 321.1807, "ARG_OF_PERICENTER": 102.8835, "MEAN_ANOMALY": 257.2305, "EPHEMERIS_TYPE": 0, "CLASSIFICATION_TYPE": "U", "NORAD_CAT_ID": 66368, "ELEMENT_SET_NO": 999, "REV_AT_EPOCH": 421, "BSTAR": 0.001655, "MEAN_MOTION_DOT": 0.00250049, "MEAN_MOTION_DDOT": 0}, "tle": {"line1": "1 66368U 25254W   25337.41214580  .00250049  00000+0  16550-2 0  9990", "line2": "2 66368  53.1569 321.1807 0001076 102.8835 257.2305 15.74279203  4214"}}, "geometry": {"type": "Point", "coordinates": [118.63687404046635, 24.407115438973026]}}, {"type": "Feature", "properties": {"norad_id": 66369, "name": "STARLINK-35795", "group": "last-30-days", "lat": 26.01238690334483, "lon": 117.06928737605601, "alt_km": 342.72315856628757, "timestamp": "2025-12-03T22:42:31.474696+00:00", "meta": {"OBJECT_NAME": "STARLINK-35795", "OBJECT_ID": "2025-254X", "EPOCH": "2025-12-03T09:53:58.867296", "MEAN_MOTION": 15.74230226, "ECCENTRICITY": 0.0001496, "INCLINATION": 53.1572, "RA_OF_ASC_NODE": 321.1826, "ARG_OF_PERICENTER": 101.4233, "MEAN_ANOMALY": 258.6955, "EPHEMERIS_TYPE": 0, "CLASSIFICATION_TYPE": "U", "NORAD_CAT_ID": 66369, "ELEMENT_SET_NO": 999, "REV_AT_EPOCH": 421, "BSTAR": 0.00085562, "MEAN_MOTION_DOT": 0.00126807, "MEAN_MOTION_DDOT": 0}, "tle": {"line1": "1 66369U 25254X   25337.41248689  .00126807  00000+0  85562-3 0  9992", "line2": "2 66369  53.1572 321.1826 0001496 101.4233 258.6955 15.74230226  4211"}}, "geometry": {"type": "Point", "coordinates": [117.06928737605601, 26.01238690334483]}}, {"type": "Feature", "properties": {"norad_id": 66370, "name": "STARLINK-35824", "group": "last-30-days", "lat": 22.970402118412757, "lon": 119.99403874091821, "alt_km": 342.7349626967889, "timestamp": "2025-12-03T22:42:31.474706+00:00", "meta": {"OBJECT_NAME": "STARLINK-35824", "OBJECT_ID": "2025-254Y", "EPOCH": "2025-12-03T09:53:00.237984", "MEAN_MOTION": 15.74274201, "ECCENTRICITY": 0.0001247, "INCLINATION": 53.157, "RA_OF_ASC_NODE": 321.1789, "ARG_OF_PERICENTER": 120.0487, "MEAN_ANOMALY": 240.0656, "EPHEMERIS_TYPE": 0, "CLASSIFICATION_TYPE": "U", "NORAD_CAT_ID": 66370, "ELEMENT_SET_NO": 999, "REV_AT_EPOCH": 421, "BSTAR": 0.0016348, "MEAN_MOTION_DOT": 0.00246849, "MEAN_MOTION_DDOT": 0}, "tle": {"line1": "1 66370U 25254Y   25337.41180831  .00246849  00000+0  16348-2 0  9992", "line2": "2 66370  53.1570 321.1789 0001247 120.0487 240.0656 15.74274201  4215"}}, "geometry": {"type": "Point", "coordinates": [119.99403874091821, 22.970402118412757]}}, {"type": "Feature", "properties": {"norad_id": 66371, "name": "STARLINK-35804", "group": "last-30-days", "lat": 20.028458505153136, "lon": 122.6537633166195, "alt_km": 343.4919924458636, "timestamp": "2025-12-03T22:42:31.474716+00:00", "meta": {"OBJECT_NAME": "STARLINK-35804", "OBJECT_ID": "2025-254Z", "EPOCH": "2025-12-03T09:52:01.901568", "MEAN_MOTION": 15.74274103, "ECCENTRICITY": 0.0001365, "INCLINATION": 53.1568, "RA_OF_ASC_NODE": 321.1736, "ARG_OF_PERICENTER": 90.8808, "MEAN_ANOMALY": 269.2368, "EPHEMERIS_TYPE": 0, "CLASSIFICATION_TYPE": "U", "NORAD_CAT_ID": 66371, "ELEMENT_SET_NO": 999, "REV_AT_EPOCH": 421, "BSTAR": 0.0016754, "MEAN_MOTION_DOT": 0.00253185, "MEAN_MOTION_DDOT": 0}, "tle": {"line1": "1 66371U 25254Z   25337.41113312  .00253185  00000+0  16754-2 0  9995", "line2": "2 66371  53.1568 321.1736 0001365  90.8808 269.2368 15.74274103  4211"}}, "geometry": {"type": "Point", "coordinates": [122.6537633166195, 20.028458505153136]}}, {"type": "Feature", "properties": {"norad_id": 66372, "name": "STARLINK-35821", "group": "last-30-days", "lat": 21.63055724008527, "lon": 121.22447606311509, "alt_km": 343.6088100072775, "timestamp": "2025-12-03T22:42:31.474725+00:00", "meta": {"OBJECT_NAME": "STARLINK-35821", "OBJECT_ID": "2025-254AA", "EPOCH": "2025-12-03T09:52:31.292256", "MEAN_MOTION": 15.74238222, "ECCENTRICITY": 0.0001585, "INCLINATION": 53.1572, "RA_OF_ASC_NODE": 321.177, "ARG_OF_PERICENTER": 85.0456, "MEAN_ANOMALY": 275.0745, "EPHEMERIS_TYPE": 0, "CLASSIFICATION_TYPE": "U", "NORAD_CAT_ID": 66372, "ELEMENT_SET_NO": 999, "REV_AT_EPOCH": 421, "BSTAR": 0.0010592, "MEAN_MOTION_DOT": 0.00157762, "MEAN_MOTION_DDOT": 0}, "tle": {"line1": "1 66372U 25254AA  25337.41147329  .00157762  00000+0  10592-2 0  9999", "line2": "2 66372  53.1572 321.1770 0001585  85.0456 275.0745 15.74238222  4210"}}, "geometry": {"type": "Point", "coordinates": [121.22447606311509, 21.63055724008527]}}, {"type": "Feature", "properties": {"norad_id": 66373, "name": "STARLINK-35809", "group": "last-30-days", "lat": 18.653217963457244, "lon": 123.85070579774285, "alt_km": 343.86305945873573, "timestamp": "2025-12-03T22:42:31.474734+00:00", "meta": {"OBJECT_NAME": "STARLINK-35809", "OBJECT_ID": "2025-254AB", "EPOCH": "2025-12-03T09:51:32.798592", "MEAN_MOTION": 15.74241953, "ECCENTRICITY": 0.0001457, "INCLINATION": 53.1571, "RA_OF_ASC_NODE": 321.1711, "ARG_OF_PERICENTER": 100.0796, "MEAN_ANOMALY": 260.0388, "EPHEMERIS_TYPE": 0, "CLASSIFICATION_TYPE": "U", "NORAD_CAT_ID": 66373, "ELEMENT_SET_NO": 999, "REV_AT_EPOCH": 421, "BSTAR": 0.0012282, "MEAN_MOTION_DOT": 0.00183632, "MEAN_MOTION_DDOT": 0}, "tle": {"line1": "1 66373U 25254AB  25337.41079628  .00183632  00000+0  12282-2 0  9999", "line2": "2 66373  53.1571 321.1711 0001457 100.0796 260.0388 15.74241953  4210"}}, "geometry": {"type": "Point", "coordinates": [123.85070579774285, 18.653217963457244]}}, {"type": "Feature", "properties": {"norad_id": 66374, "name": "STARLINK-35831", "group": "last-30-days", "lat": 17.147512099432902, "lon": 125.13197565139174, "alt_km": 344.2485818268224, "timestamp": "2025-12-03T22:42:31.474743+00:00", "meta": {"OBJECT_NAME": "STARLINK-35831", "OBJECT_ID": "2025-254AC", "EPOCH": "2025-12-03T09:51:03.706848", "MEAN_MOTION": 15.74248824, "ECCENTRICITY": 0.000176, "INCLINATION": 53.1571, "RA_OF_ASC_NODE": 321.1689, "ARG_OF_PERICENTER": 85.5161, "MEAN_ANOMALY": 274.606, "EPHEMERIS_TYPE": 0, "CLASSIFICATION_TYPE": "U", "NORAD_CAT_ID": 66374, "ELEMENT_SET_NO": 999, "REV_AT_EPOCH": 421, "BSTAR": 0.0012684, "MEAN_MOTION_DOT": 0.00189875, "MEAN_MOTION_DDOT": 0}, "tle": {"line1": "1 66374U 25254AC  25337.41045957  .00189875  00000+0  12684-2 0  9999", "line2": "2 66374  53.1571 321.1689 0001760  85.5161 274.6060 15.74248824  4217"}}, "geometry": {"type": "Point", "coordinates": [125.13197565139174, 17.147512099432902]}}]}